{
    "links": {
        "self": "http://www.neowsapp.com/rest/v1/neo/54016716?api_key=iIulBulltgU6a56xZRHN4H3l9WmuAYTsLGpBGhQ2"
    },
    "id": "54016716",
    "neo_reference_id": "54016716",
    "name": "(2020 HZ4)",
    "designation": "2020 HZ4",
    "nasa_jpl_url": "http://ssd.jpl.nasa.gov/sbdb.cgi?sstr=54016716",
    "absolute_magnitude_h": 24.17,
    "estimated_diameter": {
        "kilometers": {
            "estimated_diameter_min": 0.0389542616,
            "estimated_diameter_max": 0.087104377
        },
        "meters": {
            "estimated_diameter_min": 38.9542616126,
            "estimated_diameter_max": 87.1043769791
        },
        "miles": {
            "estimated_diameter_min": 0.0242050485,
            "estimated_diameter_max": 0.0541241338
        },
        "feet": {
            "estimated_diameter_min": 127.8026996691,
            "estimated_diameter_max": 285.7755241681
        }
    },
    "is_potentially_hazardous_asteroid": false,
    "close_approach_data": [
        {
            "close_approach_date": "2014-02-09",
            "close_approach_date_full": "2014-Feb-09 11:26",
            "epoch_date_close_approach": 1391945160000,
            "relative_velocity": {
                "kilometers_per_second": "5.365401426",
                "kilometers_per_hour": "19315.4451334547",
                "miles_per_hour": "12001.8664497291"
            },
            "miss_distance": {
                "astronomical": "0.8505621017",
                "lunar": "330.8686575613",
                "kilometers": "127242278.717043379",
                "miles": "79064685.7165774702"
            },
            "orbiting_body": "Juptr"
        },
        {
            "close_approach_date": "2020-05-02",
            "close_approach_date_full": "2020-May-02 18:55",
            "epoch_date_close_approach": 1588445700000,
            "relative_velocity": {
                "kilometers_per_second": "18.7641526675",
                "kilometers_per_hour": "67550.9496031181",
                "miles_per_hour": "41973.5331020041"
            },
            "miss_distance": {
                "astronomical": "0.041093876",
                "lunar": "15.985517764",
                "kilometers": "6147556.31964412",
                "miles": "3819914.365244056"
            },
            "orbiting_body": "Earth"
        },
        {
            "close_approach_date": "2026-02-08",
            "close_approach_date_full": "2026-Feb-08 16:21",
            "epoch_date_close_approach": 1770567660000,
            "relative_velocity": {
                "kilometers_per_second": "7.5348837454",
                "kilometers_per_hour": "27125.581483618",
                "miles_per_hour": "16854.7814501959"
            },
            "miss_distance": {
                "astronomical": "1.4803117429",
                "lunar": "575.8412679881",
                "kilometers": "221451483.673827623",
                "miles": "137603571.1925342774"
            },
            "orbiting_body": "Juptr"
        },
        {
            "close_approach_date": "2097-03-15",
            "close_approach_date_full": "2097-Mar-15 15:59",
            "epoch_date_close_approach": 4014201540000,
            "relative_velocity": {
                "kilometers_per_second": "5.3776816876",
                "kilometers_per_hour": "19359.654075486",
                "miles_per_hour": "12029.3361670708"
            },
            "miss_distance": {
                "astronomical": "0.8557825302",
                "lunar": "332.8994042478",
                "kilometers": "128023243.701130674",
                "miles": "79549954.8554603412"
            },
            "orbiting_body": "Juptr"
        }
    ],
    "orbital_data": {
        "orbit_id": "6",
        "orbit_determination_date": "2020-05-03 06:05:49",
        "first_observation_date": "2020-04-16",
        "last_observation_date": "2020-05-03",
        "data_arc_in_days": 17,
        "observations_used": 58,
        "orbit_uncertainty": "7",
        "minimum_orbit_intersection": ".0232321",
        "jupiter_tisserand_invariant": "3.024",
        "epoch_osculation": "2459000.5",
        "eccentricity": ".7031827281140848",
        "semi_major_axis": "2.566145733400984",
        "inclination": "3.544876777200388",
        "ascending_node_longitude": "66.83306230890392",
        "orbital_period": "1501.482939283009",
        "perihelion_distance": ".7616763758497611",
        "perihelion_argument": "223.9270872561078",
        "aphelion_distance": "4.370615090952207",
        "perihelion_time": "2459014.273002782995",
        "mean_anomaly": "356.697744028816",
        "mean_motion": ".2397629640546617",
        "equinox": "J2000",
        "orbit_class": {
            "orbit_class_type": "APO",
            "orbit_class_description": "Near-Earth asteroid orbits which cross the Earth’s orbit similar to that of 1862 Apollo",
            "orbit_class_range": "a (semi-major axis) > 1.0 AU; q (perihelion) < 1.017 AU"
        }
    },
    "is_sentry_object": false
}